[{"OBJECT_NAME":"OBJECT C","OBJECT_ID":"2024-085C","EPOCH":"2026-03-09T22:49:58.289376","MEAN_MOTION":15.31893958,"ECCENTRICITY":0.00283931,"INCLINATION":97.3357,"RA_OF_ASC_NODE":145.6975,"ARG_OF_PERICENTER":37.3887,"MEAN_ANOMALY":322.9323,"EPHEMERIS_TYPE":0,"CLASSIFICATION_TYPE":"U","NORAD_CAT_ID":59679,"ELEMENT_SET_NO":999,"REV_AT_EPOCH":10244,"BSTAR":0.00039740634,"MEAN_MOTION_DOT":0.0001232,"MEAN_MOTION_DDOT":0},{"OBJECT_NAME":"STARLINK-35490","OBJECT_ID":"2025-243AD","EPOCH":"2026-03-09T21:23:39.699744","MEAN_MOTION":15.30205424,"ECCENTRICITY":9.684e-5,"INCLINATION":53.1591,"RA_OF_ASC_NODE":244.3867,"ARG_OF_PERICENTER":77.0658,"MEAN_ANOMALY":283.0451,"EPHEMERIS_TYPE":0,"CLASSIFICATION_TYPE":"U","NORAD_CAT_ID":66204,"ELEMENT_SET_NO":999,"REV_AT_EPOCH":2068,"BSTAR":0.0012214249,"MEAN_MOTION_DOT":0.00035997,"MEAN_MOTION_DDOT":0}]
